{
  "type": "FeatureCollection",
  "features": [
    {
      "type": "Feature",
      "properties": {
        "norad_id": 40362,
        "name": "YAOGAN-26",
        "group": "resource",
        "lat": -47.927938899577434,
        "lon": -2.8850113804454973,
        "alt_km": 453.54928000224845,
        "timestamp": "2025-12-14T14:39:29.033589+00:00",
        "meta_object_name": "YAOGAN-26",
        "meta_object_id": "2014-088A",
        "meta_epoch": "2025-12-13T23:16:01.219584",
        "meta_mean_motion": 15.39365218,
        "meta_eccentricity": 0.00061015,
        "meta_inclination": 97.0645,
        "meta_ra_of_asc_node": 348.5998,
        "meta_arg_of_pericenter": 26.8678,
        "meta_mean_anomaly": 333.2884,
        "meta_ephemeris_type": 0,
        "meta_classification_type": "U",
        "meta_norad_cat_id": 40362,
        "meta_element_set_no": 999,
        "meta_rev_at_epoch": 60913,
        "meta_bstar": 0.00073110091,
        "meta_mean_motion_dot": 0.00028577,
        "meta_mean_motion_ddot": 0,
        "tle_line1": "1 40362U 14088A   25347.96945856  .00028577  00000+0  73110-3 0  9992",
        "tle_line2": "2 40362  97.0645 348.5998 0006101  26.8678 333.2884 15.39365218609132"
      },
      "geometry": {
        "type": "Point",
        "coordinates": [
          -2.8850113804454973,
          -47.927938899577434
        ]
      }
    },
    {
      "type": "Feature",
      "properties": {
        "norad_id": 40376,
        "name": "SMAP",
        "group": "resource",
        "lat": 48.78774285284652,
        "lon": -16.08520073833842,
        "alt_km": 677.3257339485863,
        "timestamp": "2025-12-14T14:39:29.033599+00:00",
        "meta_object_name": "SMAP",
        "meta_object_id": "2015-003A",
        "meta_epoch": "2025-12-13T23:39:48.152736",
        "meta_mean_motion": 14.63346944,
        "meta_eccentricity": 0.00012014,
        "meta_inclination": 98.1291,
        "meta_ra_of_asc_node": 352.6918,
        "meta_arg_of_pericenter": 90.3617,
        "meta_mean_anomaly": 269.7723,
        "meta_ephemeris_type": 0,
        "meta_classification_type": "U",
        "meta_norad_cat_id": 40376,
        "meta_element_set_no": 999,
        "meta_rev_at_epoch": 58053,
        "meta_bstar": 0.00016171934,
        "meta_mean_motion_dot": 7.88e-06,
        "meta_mean_motion_ddot": 0,
        "tle_line1": "1 40376U 15003A   25347.98597399  .00000788  00000+0  16172-3 0  9991",
        "tle_line2": "2 40376  98.1291 352.6918 0001201  90.3617 269.7723 14.63346944580537"
      },
      "geometry": {
        "type": "Point",
        "coordinates": [
          -16.08520073833842,
          48.78774285284652
        ]
      }
    },
    {
      "type": "Feature",
      "properties": {
        "norad_id": 40536,
        "name": "KOMPSAT-3A",
        "group": "resource",
        "lat": -74.47474938907243,
        "lon": -7.882474998465806,
        "alt_km": 444.809402758352,
        "timestamp": "2025-12-14T14:39:29.033609+00:00",
        "meta_object_name": "KOMPSAT-3A",
        "meta_object_id": "2015-014A",
        "meta_epoch": "2025-12-13T23:26:06.643392",
        "meta_mean_motion": 15.44003084,
        "meta_eccentricity": 0.00050156,
        "meta_inclination": 97.6785,
        "meta_ra_of_asc_node": 322.3916,
        "meta_arg_of_pericenter": 124.0172,
        "meta_mean_anomaly": 236.1553,
        "meta_ephemeris_type": 0,
        "meta_classification_type": "U",
        "meta_norad_cat_id": 40536,
        "meta_element_set_no": 999,
        "meta_rev_at_epoch": 59314,
        "meta_bstar": 0.00045705734,
        "meta_mean_motion_dot": 0.00020777,
        "meta_mean_motion_ddot": 0,
        "tle_line1": "1 40536U 15014A   25347.97646578  .00020777  00000+0  45706-3 0  9999",
        "tle_line2": "2 40536  97.6785 322.3916 0005015 124.0172 236.1553 15.44003084593142"
      },
      "geometry": {
        "type": "Point",
        "coordinates": [
          -7.882474998465806,
          -74.47474938907243
        ]
      }
    },
    {
      "type": "Feature",
      "properties": {
        "norad_id": 40697,
        "name": "SENTINEL-2A",
        "group": "resource",
        "lat": 58.00965689459457,
        "lon": 47.14797145684039,
        "alt_km": 782.6947161253538,
        "timestamp": "2025-12-14T14:39:29.033620+00:00",
        "meta_object_name": "SENTINEL-2A",
        "meta_object_id": "2015-028A",
        "meta_epoch": "2025-12-13T23:16:41.196864",
        "meta_mean_motion": 14.30814077,
        "meta_eccentricity": 0.00010916,
        "meta_inclination": 98.5687,
        "meta_ra_of_asc_node": 60.4844,
        "meta_arg_of_pericenter": 88.0028,
        "meta_mean_anomaly": 272.128,
        "meta_ephemeris_type": 0,
        "meta_classification_type": "U",
        "meta_norad_cat_id": 40697,
        "meta_element_set_no": 999,
        "meta_rev_at_epoch": 54724,
        "meta_bstar": 0.00013409771,
        "meta_mean_motion_dot": 3.08e-06,
        "meta_mean_motion_ddot": 0,
        "tle_line1": "1 40697U 15028A   25347.96992126  .00000308  00000+0  13410-3 0  9999",
        "tle_line2": "2 40697  98.5687  60.4844 0001091  88.0028 272.1280 14.30814077547243"
      },
      "geometry": {
        "type": "Point",
        "coordinates": [
          47.14797145684039,
          58.00965689459457
        ]
      }
    },
    {
      "type": "Feature",
      "properties": {
        "norad_id": 40701,
        "name": "GAOFEN-8",
        "group": "resource",
        "lat": 68.0708428363362,
        "lon": 6.456179921303284,
        "alt_km": 436.13933369788356,
        "timestamp": "2025-12-14T14:39:29.033630+00:00",
        "meta_object_name": "GAOFEN-8",
        "meta_object_id": "2015-030A",
        "meta_epoch": "2025-12-14T00:07:54.132096",
        "meta_mean_motion": 15.38596257,
        "meta_eccentricity": 0.00116963,
        "meta_inclination": 97.6912,
        "meta_ra_of_asc_node": 166.2071,
        "meta_arg_of_pericenter": 133.2533,
        "meta_mean_anomaly": 226.969,
        "meta_ephemeris_type": 0,
        "meta_classification_type": "U",
        "meta_norad_cat_id": 40701,
        "meta_element_set_no": 999,
        "meta_rev_at_epoch": 58290,
        "meta_bstar": 0.00025608907,
        "meta_mean_motion_dot": 9.694e-05,
        "meta_mean_motion_ddot": 0,
        "tle_line1": "1 40701U 15030A   25348.00548764  .00009694  00000+0  25609-3 0  9999",
        "tle_line2": "2 40701  97.6912 166.2071 0011696 133.2533 226.9690 15.38596257582903"
      },
      "geometry": {
        "type": "Point",
        "coordinates": [
          6.456179921303284,
          68.0708428363362
        ]
      }
    },
    {
      "type": "Feature",
      "properties": {
        "norad_id": 40718,
        "name": "CARBONITE 1 (CBNT-1)",
        "group": "resource",
        "lat": 26.054936661417624,
        "lon": 165.80904817583155,
        "alt_km": 628.4330479619257,
        "timestamp": "2025-12-14T14:39:29.033640+00:00",
        "meta_object_name": "CARBONITE 1 (CBNT-1)",
        "meta_object_id": "2015-032D",
        "meta_epoch": "2025-12-13T23:57:47.006208",
        "meta_mean_motion": 14.82756981,
        "meta_eccentricity": 0.00145254,
        "meta_inclination": 97.6406,
        "meta_ra_of_asc_node": 168.9871,
        "meta_arg_of_pericenter": 177.0208,
        "meta_mean_anomaly": 183.1095,
        "meta_ephemeris_type": 0,
        "meta_classification_type": "U",
        "meta_norad_cat_id": 40718,
        "meta_element_set_no": 999,
        "meta_rev_at_epoch": 56189,
        "meta_bstar": 0.00059464249,
        "meta_mean_motion_dot": 4.764e-05,
        "meta_mean_motion_ddot": 0,
        "tle_line1": "1 40718U 15032D   25347.99846072  .00004764  00000+0  59464-3 0  9998",
        "tle_line2": "2 40718  97.6406 168.9871 0014525 177.0208 183.1095 14.82756981561893"
      },
      "geometry": {
        "type": "Point",
        "coordinates": [
          165.80904817583155,
          26.054936661417624
        ]
      }
    },
    {
      "type": "Feature",
      "properties": {
        "norad_id": 40878,
        "name": "YAOGAN-27",
        "group": "resource",
        "lat": 42.9565743582173,
        "lon": -31.407807450262226,
        "alt_km": 1199.1142158542898,
        "timestamp": "2025-12-14T14:39:29.033650+00:00",
        "meta_object_name": "YAOGAN-27",
        "meta_object_id": "2015-040A",
        "meta_epoch": "2025-12-13T23:50:24.308160",
        "meta_mean_motion": 13.16059558,
        "meta_eccentricity": 0.00076394,
        "meta_inclination": 100.1016,
        "meta_ra_of_asc_node": 337.5567,
        "meta_arg_of_pericenter": 283.7747,
        "meta_mean_anomaly": 76.2517,
        "meta_ephemeris_type": 0,
        "meta_classification_type": "U",
        "meta_norad_cat_id": 40878,
        "meta_element_set_no": 999,
        "meta_rev_at_epoch": 49330,
        "meta_bstar": -0.00078733846,
        "meta_mean_motion_dot": -3.41e-06,
        "meta_mean_motion_ddot": 0,
        "tle_line1": "1 40878U 15040A   25347.99333690 -.00000341  00000+0 -78734-3 0  9991",
        "tle_line2": "2 40878 100.1016 337.5567 0007639 283.7747  76.2517 13.16059558493307"
      },
      "geometry": {
        "type": "Point",
        "coordinates": [
          -31.407807450262226,
          42.9565743582173
        ]
      }
    }
  ]
}